1 43013U 17073A   26009.62070892  .00000109  00000+0  72652-4 0  9995
2 43013  98.7631 310.6170 0001683  46.8434 313.2883 14.19534848421970
